NORAD_CAT_ID,OBJECT_NAME,OBJECT_TYPE,EPOCH,MEAN_MOTION,ECCENTRICITY,INCLINATION,RA_OF_ASC_NODE,ARG_OF_PERICENTER,MEAN_ANOMALY,BSTAR,MEAN_MOTION_DOT,MEAN_MOTION_DDOT,TLE_LINE0,TLE_LINE1,TLE_LINE2,SEMIMAJOR_AXIS,PERIOD,APOGEE,PERIGEE,DECAYED
53169.0,STARLINK-4117,PAYLOAD,2022-08-09 04:00:00,15.7322146,0.0003236,53.2181,295.0809,15.3782,231.7133,-0.00040253,-0.00056805,0.0,0 STARLINK-4117,1 53169U 22083AP  22221.16667824 -.00056805  00000-0 -40253-3 0  9991,2 53169  53.2181 295.0809 0003236  15.3782 231.7133 15.73221460  4206,6727.834,91.532,351.876,347.522,0.0
53169.0,STARLINK-4117,PAYLOAD,2022-08-09 14:00:01,15.73141048,0.0003561,53.2179,293.0218,14.9,73.3262,-0.00018457,-0.00026389,0.0,0 STARLINK-4117,1 53169U 22083AP  22221.58334491 -.00026389  00000-0 -18457-3 0  9993,2 53169  53.2179 293.0218 0003561  14.9000  73.3262 15.73141048  4277,6728.063,91.537,352.324,347.532,0.0
53169.0,STARLINK-4117,PAYLOAD,2022-08-09 22:00:00,15.73120613,0.0003424,53.2179,291.371,13.0718,164.0137,0.00018017,0.00024658,0.0,0 STARLINK-4117,1 53169U 22083AP  22221.91667824  .00024658  00000-0  18017-3 0  9996,2 53169  53.2179 291.3710 0003424  13.0718 164.0137 15.73120613  1304,6728.121999999999,91.538,352.29,347.68300000000005,0.0
53169.0,STARLINK-4117,PAYLOAD,2022-08-10 04:00:00,15.7312791,0.0003333999999999,53.2179,290.1333,15.3986,138.3126,0.00056503,0.00079199,0.0,0 STARLINK-4117,1 53169U 22083AP  22222.16667824  .00079199  00000-0  56503-3 0  9996,2 53169  53.2179 290.1333 0003334  15.3986 138.3126 15.73127910  4362,6728.101,91.537,352.209,347.723,0.0
53169.0,STARLINK-4117,PAYLOAD,2022-08-10 14:00:01,15.73152506,0.0003708999999999,53.218,288.0741,15.0468,339.7562,0.00053465,0.00074953,0.0,0 STARLINK-4117,1 53169U 22083AP  22222.58334491  .00074953  00000-0  53465-3 0  9990,2 53169  53.2180 288.0741 0003709  15.0468 339.7562 15.73152506  4428,6728.031,91.536,352.391,347.4,0.0
53169.0,STARLINK-4117,PAYLOAD,2022-08-10 22:00:00,15.73216975,0.0003522,53.2177,286.4231,13.0751,70.6313,-0.00050047,-0.00070355,0.0,0 STARLINK-4117,1 53169U 22083AP  22222.91667824 -.00070355  00000-0 -50047-3 0  9993,2 53169  53.2177 286.4231 0003522  13.0751  70.6313 15.73216975  1306,6727.847,91.532,352.081,347.342,0.0
53169.0,STARLINK-4117,PAYLOAD,2022-08-11 14:00:01,15.73254286,0.0003657,53.2173,283.1232,16.3206,245.3,-0.0014079,-0.00194272,0.0,0 STARLINK-4117,1 53169U 22083AP  22223.58334491 -.00194272  00000-0 -14079-2 0  9997,2 53169  53.2173 283.1232 0003657  16.3206 245.3000 15.73254286  1308,6727.74,91.53,352.066,347.145,0.0
53169.0,STARLINK-4117,PAYLOAD,2022-08-11 20:00:01,15.73251248,0.0003621999999999,53.2167,281.8877,12.8382,225.481,-0.00019531,-0.00028014,0.0,0 STARLINK-4117,1 53169U 22083AP  22223.83334491 -.00028014  00000-0 -19531-3 0  9994,2 53169  53.2167 281.8877 0003622  12.8382 225.4810 15.73251248  4620,6727.749,91.53,352.051,347.177,0.0
53169.0,STARLINK-4117,PAYLOAD,2022-08-12 14:00:01,15.73171515,0.0003816999999999,53.2168,278.1775,8.2318,160.2979,0.00046702,0.00065373,0.0,0 STARLINK-4117,1 53169U 22083AP  22224.58334491  .00065373  00000-0  46702-3 0  9994,2 53169  53.2168 278.1775 0003817   8.2318 160.2979 15.73171515  1303,6727.976,91.535,352.409,347.273,0.0
53169.0,STARLINK-4117,PAYLOAD,2022-08-12 20:00:01,15.73229121,0.0003678,53.2166,276.939,7.2621,138.0066,-0.00026115,-0.00037174,0.0,0 STARLINK-4117,1 53169U 22083AP  22224.83335648 -.00037174  00000-0 -26115-3 0  9993,2 53169  53.2166 276.9390 0003678   7.2621 138.0066 15.73229121  4783,6727.812,91.531,352.152,347.20300000000015,0.0
53169.0,STARLINK-4117,PAYLOAD,2022-08-12 22:00:01,15.73228984,0.0003595,53.2167,276.5262,6.5611,250.9455,-0.00033406,-0.0004732,0.0,0 STARLINK-4117,1 53169U 22083AP  22224.91668981 -.00047320  00000-0 -33406-3 0  9996,2 53169  53.2167 276.5262 0003595   6.5611 250.9455 15.73228984  1304,6727.813,91.531,352.096,347.259,0.0
53169.0,STARLINK-4117,PAYLOAD,2022-08-13 14:00:01,15.73105874,0.0003868999999999,53.2158,273.2292,3.0245,72.2492,0.00061638,0.00086454,0.0,0 STARLINK-4117,1 53169U 22083AP  22225.58334491  .00086454  00000-0  61638-3 0  9993,2 53169  53.2158 273.2292 0003869   3.0245  72.2492 15.73105874  1308,6728.1640000000025,91.539,352.63199999999995,347.425,0.0
53169.0,STARLINK-4117,PAYLOAD,2022-08-13 22:00:00,15.73145138,0.0003665,53.2159,271.5778,3.0793,161.0521,0.00039131,0.0005453999999999,0.0,0 STARLINK-4117,1 53169U 22083AP  22225.91667824  .00054540  00000-0  39131-3 0  9993,2 53169  53.2159 271.5778 0003665   3.0793 161.0521 15.73145138  1308,6728.052,91.536,352.38199999999995,347.451,0.0
53169.0,STARLINK-4117,PAYLOAD,2022-08-14 04:00:00,15.73184073,0.0003546,53.2162,270.3379,6.4579999999999975,134.33,0.00027613,0.00038291,0.0,0 STARLINK-4117,1 53169U 22083AP  22226.16667824  .00038291  00000-0  27613-3 0  9998,2 53169  53.2162 270.3379 0003546   6.4580 134.3300 15.73184073  4992,6727.941,91.534,352.191,347.42,0.0
53169.0,STARLINK-4117,PAYLOAD,2022-08-14 14:00:01,15.73162285,0.0003596,53.217,268.2751,5.2831,336.701,0.00044878,0.00062748,0.0,0 STARLINK-4117,1 53169U 22083AP  22226.58334491  .00062748  00000-0  44878-3 0  9991,2 53169  53.2170 268.2751 0003596   5.2831 336.7010 15.73162285  1301,6728.003000000002,91.535,352.287,347.4480000000001,0.0
53169.0,STARLINK-4117,PAYLOAD,2022-08-14 22:00:00,15.73204366,0.0003754999999999,53.216,266.6289,3.0835,67.8753,0.00017164,0.00023545,0.0,0 STARLINK-4117,1 53169U 22083AP  22226.91667824  .00023545  00000-0  17164-3 0  9997,2 53169  53.2160 266.6289 0003755   3.0835  67.8753 15.73204366  1308,6727.8830000000025,91.533,352.274,347.221,0.0
53169.0,STARLINK-4117,PAYLOAD,2022-08-15 04:00:00,15.73245379,0.0003796999999999,53.216,265.3918,3.2941,44.3535,-0.00040758,-0.00057572,0.0,0 STARLINK-4117,1 53169U 22083AP  22227.16667824 -.00057572  00000-0 -40758-3 0  9999,2 53169  53.2160 265.3918 0003797   3.2941  44.3535 15.73245379  5142,6727.766,91.531,352.185,347.076,0.0
53169.0,STARLINK-4117,PAYLOAD,2022-08-15 14:00:01,15.7315318,0.0004091999999999,53.2153,263.3317,1.0612,247.7872,0.00050702,0.00071021,0.0,0 STARLINK-4117,1 53169U 22083AP  22227.58334491  .00071021  00000-0  50702-3 0  9999,2 53169  53.2153 263.3317 0004092   1.0612 247.7872 15.73153180  1300,6728.029,91.536,352.647,347.141,0.0
53169.0,STARLINK-4117,PAYLOAD,2022-08-15 20:00:01,15.73204921,0.0003901,53.2155,262.0928,1.9228,223.6089,0.00014333,0.0001955,0.0,0 STARLINK-4117,1 53169U 22083AP  22227.83334491  .00019550  00000-0  14333-3 0  9996,2 53169  53.2155 262.0928 0003901   1.9228 223.6089 15.73204921  5257,6727.880999999999,91.533,352.371,347.122,0.0
53169.0,STARLINK-4117,PAYLOAD,2022-08-15 22:00:00,15.73184367,0.0003827,53.2154,261.68,1.9433,335.8303,0.00053555,0.00075187,0.0,0 STARLINK-4117,1 53169U 22083AP  22227.91667824  .00075187  00000-0  53555-3 0  9991,2 53169  53.2154 261.6800 0003827   1.9433 335.8303 15.73184367  1303,6727.94,91.534,352.38,347.23,0.0
53169.0,STARLINK-4117,PAYLOAD,2022-08-16 14:00:01,15.73201539,0.000416,53.2157,258.3828,1.7393,153.9368,0.0001375999999999,0.00018739,0.0,0 STARLINK-4117,1 53169U 22083AP  22228.58334491  .00018739  00000-0  13760-3 0  9990,2 53169  53.2157 258.3828 0004160   1.7393 153.9368 15.73201539  5375,6727.891,91.533,352.555,346.957,0.0
53169.0,STARLINK-4117,PAYLOAD,2022-08-16 22:00:00,15.73174808,0.0003969,53.2159,256.7311,4.2155,240.4074,0.0005007,0.00070185,0.0,0 STARLINK-4117,1 53169U 22083AP  22228.91667824  .00070185  00000-0  50070-3 0  9994,2 53169  53.2159 256.7311 0003969   4.2155 240.4074 15.73174808  1309,6727.967,91.535,352.50199999999984,347.162,0.0
53169.0,STARLINK-4117,PAYLOAD,2022-08-17 06:00:02,15.7322415,0.000408,53.2157,255.0827,8.1289,325.4803,-0.00053798,-0.0007557,0.0,0 STARLINK-4117,1 53169U 22083AP  22229.25002315 -.00075570  00000-0 -53798-3 0  9995,2 53169  53.2157 255.0827 0004080   8.1289 325.4803 15.73224150  5479,6727.826,91.532,352.436,346.946,0.0
53169.0,STARLINK-4117,PAYLOAD,2022-08-17 12:00:00,15.73153639,0.0004293,53.2155,253.8468,9.601,300.6486,0.00059095,0.00083005,0.0,0 STARLINK-4117,1 53169U 22083AP  22229.50001157  .00083005  00000-0  59095-3 0  9992,2 53169  53.2155 253.8468 0004293   9.6010 300.6486 15.73153639  5518,6728.026999999999,91.536,352.781,347.004,0.0
53169.0,STARLINK-4117,PAYLOAD,2022-08-17 14:00:01,15.73179637,0.0004295,53.2151,253.4341,9.1684,53.2996,0.00034088,0.00047467,0.0,0 STARLINK-4117,1 53169U 22083AP  22229.58334491  .00047467  00000-0  34088-3 0  9997,2 53169  53.2151 253.4341 0004295   9.1684  53.2996 15.73179637  1300,6727.953,91.534,352.708,346.92900000000014,0.0
53169.0,STARLINK-4117,PAYLOAD,2022-08-17 16:00:00,15.73223909,0.0004178999999999,53.2152,253.0212,9.3177,165.3689,-0.00029667,-0.00042118,0.0,0 STARLINK-4117,1 53169U 22083AP  22229.66667824 -.00042118  00000-0 -29667-3 0  9992,2 53169  53.2152 253.0212 0004179   9.3177 165.3689 15.73223909  5540,6727.8269999999975,91.532,352.504,346.88,0.0
53169.0,STARLINK-4117,PAYLOAD,2022-08-18 06:00:02,15.73193401,0.00041,53.2157,250.1343,9.117,231.2564,9.4796e-05,0.00012701,0.0,0 STARLINK-4117,1 53169U 22083AP  22230.25002315  .00012701  00000-0  94796-4 0  9996,2 53169  53.2157 250.1343 0004100   9.1170 231.2564 15.73193401  5631,6727.9140000000025,91.534,352.537,347.021,0.0
53169.0,STARLINK-4117,PAYLOAD,2022-08-18 14:00:01,15.73241782,0.0004271,53.2156,248.4856,7.5464,321.7188,0.00027685,0.00038495,0.0,0 STARLINK-4117,1 53169U 22083AP  22230.58334491  .00038495  00000-0  27685-3 0  9995,2 53169  53.2156 248.4856 0004271   7.5464 321.7188 15.73241782  1309,6727.776,91.531,352.514,346.76800000000014,0.0
53169.0,STARLINK-4117,PAYLOAD,2022-08-18 22:00:00,15.73229172,0.0003964,53.2157,246.8339,6.626,51.6476,0.00012035,0.00016326,0.0,0 STARLINK-4117,1 53169U 22083AP  22230.91667824  .00016326  00000-0  12035-3 0  9993,2 53169  53.2157 246.8339 0003964   6.6260  51.6476 15.73229172  5739,6727.812,91.531,352.344,347.01,0.0
